462P/LONEOS-PANSTARRS,e,7.0330,322.7322,4.3196,4.871278,0.0916726,0.57819934,71.6283,09/21.0/2024,2000,g 17.0,4.0
# From MPEC 2024-GJ3
463P/NEOWISE,e,29.2918,283.2140,216.3460,2.974297,0.1921444,0.82571713,104.0107,09/21.0/2024,2000,g 18.0,4.0
# From MPEC 2024-Q20
464P/PANSTARRS,e,21.6700,309.5773,267.5993,4.685483,0.0971790,0.28046237,55.5312,09/21.0/2024,2000,g 10.5,4.0
# From MPEC 2024-NE4
465P/Hill,e,25.8651,217.9913,141.0508,6.019164,0.0667421,0.61354017,33.4143,09/21.0/2024,2000,g 12.5,4.0
# From MPEC 2024-JU4
466P/PANSTARRS,e,12.2786,119.5054,197.1656,4.055640,0.1206744,0.46934093,60.9745,09/21.0/2024,2000,g 14.0,4.0
# From MPEC 2023-T65
467P/LINEAR-Grauer,e,2.4790,43.2661,267.7965,5.829411,0.0700273,0.05498760,46.2228,09/21.0/2024,2000,g  9.0,4.0
# From MPEC 2024-O39
468P/SidingSpring,e,50.4476,356.1237,322.5849,7.122034,0.0518559,0.44536349,15.8039,09/21.0/2024,2000,g 11.5,4.0
# From MPEC 2024-P23
469P/PANSTARRS,e,20.1738,178.9661,43.5104,4.340928,0.1089759,0.30773139,311.6666,09/21.0/2024,2000,g 13.5,4.0
# From MPEC 2024-R10
470P/PANSTARRS,e,8.8447,246.1761,151.8257,4.470289,0.1042799,0.38989947,29.0581,09/21.0/2024,2000,g 15.5,4.0
# From MPEC 2024-GJ3
471P/,e,4.7946,283.3058,94.9139,5.706403,0.0723037,0.62811902,19.9475,09/21.0/2024,2000,g 12.0,4.0
# From MPEC 2024-RQ6
472P/NEAT-LINEAR,e,10.8308,205.9678,218.9235,7.823706,0.0450386,0.56677845,3.0508,09/21.0/2024,2000,g 10.5,4.0
# From MPEC 2024-MB8
473P/NEAT,e,56.9074,22.1852,42.9216,7.969186,0.0438110,0.82358572,9.1020,09/21.0/2024,2000,g 13.5,4.0
# From MPEC 2024-B74
474P/Hogan,e,1.0970,26.7457,11.2619,3.130338,0.1779578,0.18826104,77.0897,09/21.0/2024,2000,g 15.5,4.0
# From MPEC 2024-O39
475P/Spacewatch-LINEAR,e,14.5245,147.3722,40.3915,7.311749,0.0498508,0.44234055,5.5547,09/21.0/2024,2000,g 11.0,4.0
# From MPEC 2024-Q20
476P/PANSTARRS,e,19.0052,57.0595,46.7361,4.780961,0.0942825,0.34672943,357.5924,09/21.0/2024,2000,g 12.5,4.0
# From MPEC 2024-GJ3
477P/PANSTARRS,e,8.9145,59.1569,305.9538,3.004022,0.1892995,0.41746382,50.9857,09/21.0/2024,2000,g 14.5,4.0
# From MPEC 2024-L77
478P/ATLAS,e,12.5248,127.2703,13.1942,3.646342,0.1415526,0.34354905,20.0984,09/21.0/2024,2000,g 13.5,4.0
# From MPEC 2024-PC5
479P/Elenin,e,15.3983,295.8315,263.5246,5.624040,0.0738978,0.77886310,10.2538,09/21.0/2024,2000,g 15.0,4.0
# From MPEC 2024-GJ3
480P/PANSTARRS,e,13.7175,229.9772,214.3104,4.608722,0.0996170,0.24639411,51.4778,09/21.0/2024,2000,g 12.0,4.0
# From MPEC 2024-L77
481P/Lemmon-PANSTARRS,e,6.0827,93.5526,356.7217,4.679329,0.0973708,0.34345880,42.8427,09/21.0/2024,2000,g 13.5,4.0
# From MPEC 2024-JU4
482P/PANSTARRS,e,24.4846,126.0912,339.6810,3.755717,0.1354144,0.49233941,64.5852,09/21.0/2024,2000,g 13.5,4.0
# From MPEC 2024-R10
483P-A/PANSTARRS,e,14.2655,199.7002,48.3725,3.189021,0.1730685,0.22477849,162.7991,09/21.0/2024,2000,g 13.5,4.0
# From MPEC 2024-R10
483P-B/PANSTARRS,e,14.2663,199.6996,48.3623,3.188954,0.1730739,0.22471752,162.8336,09/21.0/2024,2000,g 17.0,4.0
# From MPEC 2024-DD5
484P/Spacewatch,e,14.4753,265.3959,240.7670,3.757997,0.1352912,0.43257157,188.5909,09/21.0/2024,2000,g 16.0,4.0
# From MPEC 2024-JU4
485P/Sheppard-Tholen,e,10.0162,261.6462,196.0330,6.847596,0.0550043,0.41710648,21.6257,09/21.0/2024,2000,g 13.0,4.0
# From MPEC 2024-R10
486P/Leonard,e,2.2095,219.0279,93.9479,3.628930,0.1425726,0.36375555,332.2196,09/21.0/2024,2000,g 14.5,4.0
# From MPC107687
1I/`Oumuamua,h,09/09.4886/2017,122.6778,24.5997,241.6845,1.199252,0.255240,2000,23.0,2.0
# From MPEC 2023-L37
2I/Borisov,h,12/08.5548/2019,44.0527,308.1480,209.1251,3.356633,2.006548,2000,11.0,4.0
